{
  "type": "FeatureCollection",
  "features": [
    {
      "type": "Feature",
      "properties": {
        "norad_id": 63632,
        "name": "SHENZHOU-20 (SZ-20)",
        "group": "stations",
        "lat": 41.27621214434852,
        "lon": 155.03427027701895,
        "alt_km": 387.62353147726117,
        "timestamp": "2025-12-05T19:30:24.370136+00:00",
        "meta_object_name": "SHENZHOU-20 (SZ-20)",
        "meta_object_id": "2025-082A",
        "meta_epoch": "2025-12-05T06:48:03.993120",
        "meta_mean_motion": 15.5871605,
        "meta_eccentricity": 0.00098342,
        "meta_inclination": 41.4682,
        "meta_ra_of_asc_node": 61.9587,
        "meta_arg_of_pericenter": 333.0075,
        "meta_mean_anomaly": 27.0251,
        "meta_ephemeris_type": 0,
        "meta_classification_type": "U",
        "meta_norad_cat_id": 63632,
        "meta_element_set_no": 999,
        "meta_rev_at_epoch": 25530,
        "meta_bstar": 0.00043162186,
        "meta_mean_motion_dot": 0.00034071,
        "meta_mean_motion_ddot": 0,
        "tle_line1": "1 63632U 25082A   25339.28337955  .00034071  00000+0  43162-3 0  9994",
        "tle_line2": "2 63632  41.4682  61.9587 0009834 333.0075  27.0251 15.58716050255308"
      },
      "geometry": {
        "type": "Point",
        "coordinates": [
          155.03427027701895,
          41.27621214434852
        ]
      }
    },
    {
      "type": "Feature",
      "properties": {
        "norad_id": 64751,
        "name": "PROGRESS-MS 31",
        "group": "stations",
        "lat": -45.222992043045146,
        "lon": 49.76108728097249,
        "alt_km": 421.10249008486244,
        "timestamp": "2025-12-05T19:30:24.370149+00:00",
        "meta_object_name": "PROGRESS-MS 31",
        "meta_object_id": "2025-146A",
        "meta_epoch": "2025-12-05T06:04:12.236160",
        "meta_mean_motion": 15.49328184,
        "meta_eccentricity": 0.00035858,
        "meta_inclination": 51.6297,
        "meta_ra_of_asc_node": 179.5463,
        "meta_arg_of_pericenter": 206.2517,
        "meta_mean_anomaly": 153.8291,
        "meta_ephemeris_type": 0,
        "meta_classification_type": "U",
        "meta_norad_cat_id": 64751,
        "meta_element_set_no": 999,
        "meta_rev_at_epoch": 675,
        "meta_bstar": 0.0002719745,
        "meta_mean_motion_dot": 0.00014736,
        "meta_mean_motion_ddot": 0,
        "tle_line1": "1 64751U 25146A   25339.25291940  .00014736  00000+0  27197-3 0  9994",
        "tle_line2": "2 64751  51.6297 179.5463 0003585 206.2517 153.8291 15.49328184  6756"
      },
      "geometry": {
        "type": "Point",
        "coordinates": [
          49.76108728097249,
          -45.222992043045146
        ]
      }
    },
    {
      "type": "Feature",
      "properties": {
        "norad_id": 64786,
        "name": "TIANZHOU-9",
        "group": "stations",
        "lat": 41.27621203113271,
        "lon": 155.03427234755978,
        "alt_km": 387.62353165455715,
        "timestamp": "2025-12-05T19:30:24.370160+00:00",
        "meta_object_name": "TIANZHOU-9",
        "meta_object_id": "2025-149A",
        "meta_epoch": "2025-12-05T06:48:03.993120",
        "meta_mean_motion": 15.5871605,
        "meta_eccentricity": 0.00098342,
        "meta_inclination": 41.4682,
        "meta_ra_of_asc_node": 61.9587,
        "meta_arg_of_pericenter": 333.0075,
        "meta_mean_anomaly": 27.0251,
        "meta_ephemeris_type": 0,
        "meta_classification_type": "U",
        "meta_norad_cat_id": 64786,
        "meta_element_set_no": 999,
        "meta_rev_at_epoch": 25530,
        "meta_bstar": 0.00043162186,
        "meta_mean_motion_dot": 0.00034071,
        "meta_mean_motion_ddot": 0,
        "tle_line1": "1 64786U 25149A   25339.28337955  .00034071  00000+0  43162-3 0  9999",
        "tle_line2": "2 64786  41.4682  61.9587 0009834 333.0075  27.0251 15.58716050255309"
      },
      "geometry": {
        "type": "Point",
        "coordinates": [
          155.03427234755978,
          41.27621203113271
        ]
      }
    },
    {
      "type": "Feature",
      "properties": {
        "norad_id": 65077,
        "name": "CREW DRAGON 11",
        "group": "stations",
        "lat": -45.222992682438154,
        "lon": 49.76108897605633,
        "alt_km": 421.10249014183773,
        "timestamp": "2025-12-05T19:30:24.370170+00:00",
        "meta_object_name": "CREW DRAGON 11",
        "meta_object_id": "2025-166A",
        "meta_epoch": "2025-12-05T06:04:12.236160",
        "meta_mean_motion": 15.49328184,
        "meta_eccentricity": 0.00035858,
        "meta_inclination": 51.6297,
        "meta_ra_of_asc_node": 179.5463,
        "meta_arg_of_pericenter": 206.2517,
        "meta_mean_anomaly": 153.8291,
        "meta_ephemeris_type": 0,
        "meta_classification_type": "U",
        "meta_norad_cat_id": 65077,
        "meta_element_set_no": 999,
        "meta_rev_at_epoch": 214,
        "meta_bstar": 0.0002719745,
        "meta_mean_motion_dot": 0.00014736,
        "meta_mean_motion_ddot": 0,
        "tle_line1": "1 65077U 25166A   25339.25291940  .00014736  00000+0  27197-3 0  9998",
        "tle_line2": "2 65077  51.6297 179.5463 0003585 206.2517 153.8291 15.49328184  2147"
      },
      "geometry": {
        "type": "Point",
        "coordinates": [
          49.76108897605633,
          -45.222992682438154
        ]
      }
    },
    {
      "type": "Feature",
      "properties": {
        "norad_id": 65304,
        "name": "DRAGON CRS-33",
        "group": "stations",
        "lat": -45.222992986910796,
        "lon": 49.76108978323853,
        "alt_km": 421.1024901689734,
        "timestamp": "2025-12-05T19:30:24.370180+00:00",
        "meta_object_name": "DRAGON CRS-33",
        "meta_object_id": "2025-186A",
        "meta_epoch": "2025-12-05T06:04:12.236160",
        "meta_mean_motion": 15.49328184,
        "meta_eccentricity": 0.00035858,
        "meta_inclination": 51.6297,
        "meta_ra_of_asc_node": 179.5463,
        "meta_arg_of_pericenter": 206.2517,
        "meta_mean_anomaly": 153.8291,
        "meta_ephemeris_type": 0,
        "meta_classification_type": "U",
        "meta_norad_cat_id": 65304,
        "meta_element_set_no": 999,
        "meta_rev_at_epoch": 11,
        "meta_bstar": 0.0002719745,
        "meta_mean_motion_dot": 0.00014736,
        "meta_mean_motion_ddot": 0,
        "tle_line1": "1 65304U 25186A   25339.25291940  .00014736  00000+0  27197-3 0  9993",
        "tle_line2": "2 65304  51.6297 179.5463 0003585 206.2517 153.8291 15.49328184   115"
      },
      "geometry": {
        "type": "Point",
        "coordinates": [
          49.76108978323853,
          -45.222992986910796
        ]
      }
    },
    {
      "type": "Feature",
      "properties": {
        "norad_id": 65586,
        "name": "PROGRESS-MS 32",
        "group": "stations",
        "lat": -45.22299329138405,
        "lon": 49.76109059042243,
        "alt_km": 421.10249019610455,
        "timestamp": "2025-12-05T19:30:24.370190+00:00",
        "meta_object_name": "PROGRESS-MS 32",
        "meta_object_id": "2025-204A",
        "meta_epoch": "2025-12-05T06:04:12.236160",
        "meta_mean_motion": 15.49328184,
        "meta_eccentricity": 0.00035858,
        "meta_inclination": 51.6297,
        "meta_ra_of_asc_node": 179.5463,
        "meta_arg_of_pericenter": 206.2517,
        "meta_mean_anomaly": 153.8291,
        "meta_ephemeris_type": 0,
        "meta_classification_type": "U",
        "meta_norad_cat_id": 65586,
        "meta_element_set_no": 999,
        "meta_rev_at_epoch": 27,
        "meta_bstar": 0.0002719745,
        "meta_mean_motion_dot": 0.00014736,
        "meta_mean_motion_ddot": 0,
        "tle_line1": "1 65586U 25204A   25339.25291940  .00014736  00000+0  27197-3 0  9996",
        "tle_line2": "2 65586  51.6297 179.5463 0003585 206.2517 153.8291 15.49328184   274"
      },
      "geometry": {
        "type": "Point",
        "coordinates": [
          49.76109059042243,
          -45.22299329138405
        ]
      }
    },
    {
      "type": "Feature",
      "properties": {
        "norad_id": 65616,
        "name": "CYGNUS NG-23",
        "group": "stations",
        "lat": -45.222993595857105,
        "lon": 49.76109139760579,
        "alt_km": 421.1024902232357,
        "timestamp": "2025-12-05T19:30:24.370200+00:00",
        "meta_object_name": "CYGNUS NG-23",
        "meta_object_id": "2025-208A",
        "meta_epoch": "2025-12-05T06:04:12.236160",
        "meta_mean_motion": 15.49328184,
        "meta_eccentricity": 0.00035858,
        "meta_inclination": 51.6297,
        "meta_ra_of_asc_node": 179.5463,
        "meta_arg_of_pericenter": 206.2517,
        "meta_mean_anomaly": 153.8291,
        "meta_ephemeris_type": 0,
        "meta_classification_type": "U",
        "meta_norad_cat_id": 65616,
        "meta_element_set_no": 999,
        "meta_rev_at_epoch": 22,
        "meta_bstar": 0.0002719745,
        "meta_mean_motion_dot": 0.00014736,
        "meta_mean_motion_ddot": 0,
        "tle_line1": "1 65616U 25208A   25339.25291940  .00014736  00000+0  27197-3 0  9994",
        "tle_line2": "2 65616  51.6297 179.5463 0003585 206.2517 153.8291 15.49328184   223"
      },
      "geometry": {
        "type": "Point",
        "coordinates": [
          49.76109139760579,
          -45.222993595857105
        ]
      }
    }
  ]
}